QIANFAN-60              
1 62790U 25016F   25208.22500874  .00000169  00000+0  24224-3 0  9995
2 62790  88.9833 117.3933 0016918  30.4956 329.7175 13.50966727 28521
QIANFAN-61              
1 62791U 25016G   25208.53379608  .00000145  00000+0  20581-3 0  9995
2 62791  88.9901 117.4253 0016291  28.7528 331.4517 13.50956312 28588
QIANFAN-62              
1 62792U 25016H   25208.53772998  .00000145  00000+0  20569-3 0  9991
2 62792  88.9847 117.3681 0017700  28.5514 331.6603 13.50955193 28574
QIANFAN-63              
1 62793U 25016J   25208.55007405  .00000154  00000+0  21949-3 0  9991
2 62793  88.9854 117.3063 0017616  32.7084 327.5154 13.50952274 28619
QIANFAN-64              
1 62794U 25016K   25207.87523983  .00000143  00000+0  20345-3 0  9997
2 62794  88.9841 117.3741 0015358  29.5538 330.6478 13.50960786 28518
QIANFAN-65              
1 62795U 25016L   25208.22925047  .00000157  00000+0  22454-3 0  9993
2 62795  88.9837 117.3659 0015557  30.2006 330.0038 13.50958786 28548
QIANFAN-66              
1 62796U 25016M   25208.18384426  .00000162  00000+0  23285-3 0  9998
2 62796  88.9856 117.3134 0016554  25.8817 334.3159 13.50961008 28582
QIANFAN-67              
1 62797U 25016N   25208.18810927  .00000163  00000+0  23374-3 0  9999
2 62797  88.9847 117.3522 0016722  32.0797 328.1368 13.50962564 28556
QIANFAN-68              
1 62798U 25016P   25208.19214866  .00000155  00000+0  22073-3 0  9997
2 62798  88.9850 117.3950 0017300  30.3008 329.9139 13.50959965 28539
QIANFAN-69              
1 62799U 25016Q   25208.19619529  .00000151  00000+0  21482-3 0  9992
2 62799  88.9829 117.2908 0017495  31.1871 329.0314 13.50960867 28573
QIANFAN-70              
1 62800U 25016R   25208.21274002  .00000157  00000+0  22526-3 0  9997
2 62800  88.9850 117.3981 0016799  22.5533 337.6353 13.50959371 28539
QIANFAN-71              
1 62801U 25016S   25208.20870677  .00000146  00000+0  20793-3 0  9999
2 62801  88.9844 117.3866 0017498  34.3459 325.8819 13.50959211 28539
QIANFAN-72              
1 62802U 25016T   25208.20443968  .00000143  00000+0  20273-3 0  9999
2 62802  88.9834 117.4091 0021054  39.4101 320.8577 13.50960880 28522
QIANFAN-73              
1 63159U 25046A   25208.17805232  .00000099  00000+0  13508-3 0  9993
2 63159  88.9855 334.2974 0015970 158.3729 201.8100 13.50957011 28709
QIANFAN-74              
1 63160U 25046B   25208.23573788  .00000133  00000+0  18766-3 0  9990
2 63160  88.9855 334.1800 0001985 100.3164 259.8211 13.50961390 28777
QIANFAN-75              
1 63161U 25046C   25208.59370951  .00000133  00000+0  18694-3 0  9997
2 63161  88.9856 334.3750 0017093 160.5244 199.6564 13.50958019 28696
QIANFAN-76              
1 63162U 25046D   25207.92281420  .00000145  00000+0  20611-3 0  9991
2 63162  88.9855 334.4250 0014593 161.9814 198.1857 13.50953651 28610
QIANFAN-77              
1 63163U 25046E   25208.20962874  .00000338  00000+0  23662-3 0  9996
2 63163  88.9854 333.5378 0016168 147.0611 213.1576 13.96001309 29128
QIANFAN-78              
1 63164U 25046F   25208.18630996  .00000134  00000+0  18905-3 0  9999
2 63164  88.9855 334.2635 0015915 164.0470 196.1185 13.50957110 28726
QIANFAN-79              
1 63165U 25046G   25207.91877721  .00000133  00000+0  18786-3 0  9995
2 63165  88.9858 334.3930 0015614 163.0776 197.0899 13.50959172 28635
QIANFAN-80              
1 63166U 25046H   25208.52787667  .00000148  00000+0  20978-3 0  9995
2 63166  88.9856 334.0413 0014548 165.0298 195.1287 13.50959749 28879
QIANFAN-81              
1 63167U 25046J   25208.21099832  .00000122  00000+0  17086-3 0  9990
2 63167  88.9856 334.1422 0015841 155.4632 204.7277 13.50958544 28781
QIANFAN-82              
1 63168U 25046K   25208.54003716  .00000137  00000+0  19397-3 0  9996
2 63168  88.9856 334.1519 0013800 161.1353 199.0313 13.50960200 28819
QIANFAN-83              
1 63169U 25046L   25208.21171579  .00000164  00000+0  19684-3 0  9993
2 63169  88.9856 334.2331 0015237 155.7244 204.4634 13.61928738 28759
QIANFAN-84              
1 63170U 25046M   25208.19859048  .00000234  00000+0  34334-3 0  9993
2 63170  88.9856 334.3200 0016823 159.8479 200.3340 13.50961622 28693
QIANFAN-85              
1 63171U 25046N   25208.19450682  .00000133  00000+0  18724-3 0  9998
2 63171  88.9855 334.1928 0014143 161.2062 198.9614 13.50956390 28766
QIANFAN-86              
1 63172U 25046P   25208.20273774  .00000128  00000+0  18016-3 0  9994
2 63172  88.9858 334.0508 0011923 163.9405 196.2127 13.50956624 28845
QIANFAN-87              
1 63173U 25046Q   25207.87755045 -.00000075  00000+0 -13563-3 0  9998
2 63173  88.9849 334.2014 0012697 160.7696 199.3936 13.50953984 28732
QIANFAN-88              
1 63174U 25046R   25208.19047982  .00000126  00000+0  17703-3 0  9994
2 63174  88.9856 334.1202 0012909 167.4073 192.7403 13.50956838 28803
QIANFAN-89              
1 63175U 25046S   25208.52368013  .00000143  00000+0  20259-3 0  9992
2 63175  88.9856 334.2751 0017510 159.6950 200.4901 13.50961644 28748
QIANFAN-90              
1 63176U 25046T   25208.18213730  .00000133  00000+0  18778-3 0  9992
2 63176  88.9856 334.2822 0014486 157.7508 202.4275 13.50960015 28719
